{"fetched_at":"2026-07-20T18:29:38.415Z","source":"https://celestrak.org/NORAD/elements/gp.php?NAME=PLEIADES&FORMAT=JSON","constellation":"pleiades-neo","records":[{"OBJECT_NAME":"PLEIADES NEO 3","OBJECT_ID":"2021-034A","EPOCH":"2026-07-19T07:56:44.636352","CLASSIFICATION_TYPE":"U","MEAN_MOTION":14.81672056,"ECCENTRICITY":0.00013939,"INCLINATION":97.8937,"RA_OF_ASC_NODE":274.6355,"ARG_OF_PERICENTER":96.6622,"MEAN_ANOMALY":263.475,"EPHEMERIS_TYPE":0,"NORAD_CAT_ID":48268,"ELEMENT_SET_NO":999,"REV_AT_EPOCH":28241,"BSTAR":0.000026537661,"MEAN_MOTION_DOT":0.00000157,"MEAN_MOTION_DDOT":0},{"OBJECT_NAME":"PLEIADES NEO 4","OBJECT_ID":"2021-073E","EPOCH":"2026-07-20T05:49:33.451392","CLASSIFICATION_TYPE":"U","MEAN_MOTION":14.81674198,"ECCENTRICITY":0.00013578,"INCLINATION":97.8935,"RA_OF_ASC_NODE":275.53,"ARG_OF_PERICENTER":97.1513,"MEAN_ANOMALY":262.9855,"EPHEMERIS_TYPE":0,"NORAD_CAT_ID":49070,"ELEMENT_SET_NO":999,"REV_AT_EPOCH":26626,"BSTAR":0.00010733616,"MEAN_MOTION_DOT":0.00000793,"MEAN_MOTION_DDOT":0}]}
