PLEIADES NEO 3          
1 48268U 21034A   26200.33107218  .00000157  00000+0  26538-4 0  9993
2 48268  97.8937 274.6355 0001393  96.6622 263.4750 14.81672056282416
PLEIADES NEO 4          
1 49070U 21073E   26201.24274828  .00000793  00000+0  10734-3 0  9997
2 49070  97.8935 275.5300 0001357  97.1513 262.9855 14.81674198266265
